281P/MOSS,e,4.7197,87.1736,26.8290,4.870153,0.0917044,0.17164137,283.5080,10/22.0/2020,2000,g 11.0,4.0
# From MPC xxxxx
282P/,e,5.8105,9.2957,217.5614,4.243965,0.1127318,0.18915789,318.6071,10/22.0/2020,2000,g 13.5,2.0
# From MPEC 2013-M31
283P/Spacewatch,e,14.4540,161.1327,22.2637,4.139614,0.1170211,0.48499540,322.4311,10/22.0/2020,2000,g  9.0,4.0
# From MPEC 2020-K19
284P/McNaught,e,11.8589,144.2721,202.6094,3.676752,0.1398001,0.37597880,314.3967,10/22.0/2020,2000,g 13.0,4.0
# From MPC 85339
285P/LINEAR,e,25.0317,185.4920,178.4084,4.508676,0.1029510,0.61818125,276.3415,10/22.0/2020,2000,g 15.0,4.0
# From MPC 90771
286P/Christensen,e,17.0449,283.9629,24.7873,4.110376,0.1182719,0.42529756,292.8777,10/22.0/2020,2000,g 14.0,4.0
# From MPC 96868
287P/Christensen,e,16.3195,139.0427,188.8652,4.166994,0.1158697,0.27071311,245.8554,10/22.0/2020,2000,g 13.5,4.0
# From MPC xxxxx
288P/,e,3.2402,83.1885,280.7006,3.047828,0.1852330,0.20137999,267.8314,10/22.0/2020,2000,g 16.0,2.0
# From MPC118844
289P/Blanpain,e,5.8941,68.8876,9.8798,3.047628,0.1852512,0.68540455,56.6894,10/22.0/2020,2000,g  2.5,4.0
# From MPC 95214
290P/Jager,e,20.2627,302.6800,181.9475,6.182011,0.0641223,0.63650691,155.9519,10/22.0/2020,2000,g 10.5,4.0
# From MPC 89314
291P/NEAT,e,6.3203,238.1646,173.9343,4.514776,0.1027424,0.43607852,264.8168,10/22.0/2020,2000,g 13.0,4.0
# From MPC115887
292P/Li,e,24.2551,90.9941,319.4595,6.109177,0.0652725,0.58785582,160.3779,10/22.0/2020,2000,g 12.5,4.0
# From MPEC 2020-U96
293P/Spacewatch,e,9.0566,78.4119,41.0627,3.644139,0.1416810,0.41828747,351.7419,10/22.0/2020,2000,g 14.5,4.0
# From MPEC 2020-SI8
294P/LINEAR,e,18.2237,312.5901,235.5345,3.207042,0.1716118,0.59477470,56.1415,10/22.0/2020,2000,g 15.5,4.0
# From MPC 93589
295P/LINEAR,e,21.0731,7.4174,72.9380,5.306513,0.0806288,0.61602512,190.3914,10/22.0/2020,2000,g 12.0,4.0
# From MPEC 2020-SI8
296P/Garradd,e,25.2344,263.6407,350.1250,3.497378,0.1506920,0.47863116,5.1352,10/22.0/2020,2000,g 14.0,4.0
# From MPC102956
297P/Beshore,e,10.3286,97.6596,132.4911,3.442197,0.1543301,0.31920496,345.6728,10/22.0/2020,2000,g 15.0,4.0
# From MPC114609
298P/Christensen,e,7.8701,52.8241,100.6895,3.592913,0.1447218,0.38680202,6.6039,10/22.0/2020,2000,g 15.0,4.0
# From MPC101100
299P/Catalina-PANSTARRS,e,10.4766,271.6249,323.9037,4.384289,0.1073632,0.28179325,221.8788,10/22.0/2020,2000,g 11.5,4.0
# From MPC114609
300P/Catalina,e,5.6760,95.6664,222.8735,2.700076,0.2221469,0.69173648,159.8830,10/22.0/2020,2000,g 16.0,4.0
# From MPC 89014
301P/LINEAR-NEAT,e,10.3428,351.1781,193.7207,5.738153,0.0717044,0.58553025,161.0106,10/22.0/2020,2000,g 13.0,4.0
# From MPEC 2020-HN5
302P/Lemmon-PANSTARRS,e,6.0342,121.7550,208.1971,4.277068,0.1114255,0.22993608,182.0479,10/22.0/2020,2000,g 12.5,4.0
# From MPC 92278
303P/NEAT,e,7.0191,347.9700,356.8627,5.048739,0.0868820,0.51031154,190.9475,10/22.0/2020,2000,g 13.5,4.0
# From MPEC 2020-N08
304P/Ory,e,2.6068,58.9365,335.2289,3.150135,0.1762830,0.60044759,12.4447,10/22.0/2020,2000,g 16.5,4.0
# From MPC101100
305P/Skiff,e,11.6441,240.1271,147.2717,4.644713,0.0984613,0.69295313,213.4825,10/22.0/2020,2000,g 18.0,4.0
# From MPC 92278
306P/LINEAR,e,8.3105,341.3790,0.8216,3.122388,0.1786379,0.59325998,48.7891,10/22.0/2020,2000,g 19.0,4.0
# From MPC 92278
307P/LINEAR,e,4.4327,158.1381,222.1480,5.794224,0.0706661,0.67429163,150.7157,10/22.0/2020,2000,g 15.0,4.0
# From MPC109148
308P/Lagerkvist-Carsenty,e,4.8499,63.0997,333.6085,6.606488,0.0580428,0.36295276,115.8867,10/22.0/2020,2000,g 13.0,2.0
# From MPC 94284
309P/LINEAR,e,17.0233,10.1409,49.9787,4.371105,0.1078493,0.61758309,224.6309,10/22.0/2020,2000,g 15.0,4.0
# From MPC 98566
310P/Hill,e,13.1280,8.9262,31.8572,4.177736,0.1154231,0.42174550,233.2509,10/22.0/2020,2000,g 13.5,4.0
# From MPC109593
311P/PANSTARRS,e,4.9699,279.2276,144.5834,2.188679,0.3043905,0.11540878,4.4335,10/22.0/2020,2000,g 17.0,4.0
# From MPEC 2020-U96
312P/NEAT,e,19.7683,144.6699,207.5289,3.466292,0.1527237,0.42784782,4.1250,10/22.0/2020,2000,g 16.0,4.0
# From MPEC 2020-U96
313P/Gibbs,e,10.9832,105.9724,254.6398,3.161634,0.1753221,0.23488754,33.2612,10/22.0/2020,2000,g 15.0,4.0
# From MPC105243
314P/Montani,e,3.9793,267.6179,214.1942,7.273424,0.0502453,0.41613545,74.0782,10/22.0/2020,2000,g  9.5,4.0
# From MPC115888
315P/LONEOS,e,17.7939,69.0510,65.6514,4.939378,0.0897833,0.52214824,127.5658,10/22.0/2020,2000,g 11.0,4.0
# From MPC 92279
316P/LONEOS-Christensen,e,9.8668,246.7259,193.6935,4.353262,0.1085130,0.15911462,198.2810,10/22.0/2020,2000,g 13.5,4.0
# From MPEC 2020-C98
317P/WISE,e,11.9509,275.5194,334.9103,2.965220,0.1930273,0.57043652,4.9827,10/22.0/2020,2000,g 17.5,4.0
# From MPC102103
318P/McNaught-Hartley,e,17.8742,35.6250,313.1309,7.497096,0.0480136,0.67503575,87.6235,10/22.0/2020,2000,g  8.5,6.0
# From MPC 97499
319P/Catalina-McNaught,e,15.0953,111.3789,203.6286,3.568387,0.1462164,0.66655902,283.1740,10/22.0/2020,2000,g 15.0,4.0
# From MPC 96281
320P/McNaught,e,4.9089,295.9300,0.7785,3.093709,0.1811277,0.68572581,344.2158,10/22.0/2020,2000,g 20.5,4.0
# From MPC105243
321P/SOHO,e,20.0587,165.0348,172.7310,2.423221,0.2612851,0.98108052,0.0000,01/17.2645/2020,2000,g 20.0,4.0
# From MPC102103
322P/SOHO,e,11.4607,351.4758,56.9275,2.508186,0.2481215,0.97977575,0.0000,08/31.4775/2019,2000,g 19.0,4.0
# From MPEC 2016-Y36
323P/SOHO,e,5.3385,324.3749,353.0519,2.581980,0.2375608,0.98484144,0.0000,01/17.7618/2021,2000,g 20.0,4.0
# From MPC108598
324P/La Sagra,e,21.4177,270.6448,57.8585,3.097169,0.1808242,0.15470100,324.4192,10/22.0/2020,2000,g 13.0,4.0
# From MPC114609
325P/Yang-Gao,e,16.6978,257.5762,343.6850,3.524097,0.1489815,0.59366180,282.0695,10/22.0/2020,2000,g 14.0,4.0
# From MPC103849
326P/Hill,e,2.4708,99.8136,278.5857,4.064187,0.1202939,0.31741775,219.8338,10/22.0/2020,2000,g 13.5,4.0
# From MPC 97499
327P/Van Ness,e,36.2458,173.9752,185.0235,3.562733,0.1465646,0.56285413,260.2530,10/22.0/2020,2000,g 16.0,4.0
# From MPC109148
328P/LONEOS-Tucker,e,17.6696,341.6241,30.4815,4.195682,0.1146833,0.55176137,202.2470,10/22.0/2020,2000,g 14.5,4.0
# From MPC101101
329P/LINEAR-Catalina,e,21.6660,87.6823,343.5473,5.192584,0.0832969,0.67690682,148.9334,10/22.0/2020,2000,g 13.5,4.0
# From MPC105243
330P/Catalina,e,15.6944,293.0954,188.9970,6.631706,0.0577120,0.54857909,87.5392,10/22.0/2020,2000,g 12.0,4.0
# From MPEC 2020-U96
331P/Gibbs,e,9.7395,216.7787,183.7585,3.003507,0.1893482,0.04071789,4.2245,10/22.0/2020,2000,g 12.0,4.0
# From MPEC 2016-K18
332P/Ikeya-Murakami,e,9.3802,3.7912,152.3593,3.088534,0.1815831,0.48943255,305.4428,10/22.0/2020,2000,g 18.0,4.0
# From MPEC 2020-L06
333P/LINEAR,e,131.9826,115.6273,26.0305,4.219087,0.1137303,0.73663618,189.3706,10/22.0/2020,2000,g 15.0,4.0
# From MPC115888
334P/NEAT,e,20.4669,90.7193,89.9361,6.837589,0.0551251,0.35302715,67.8922,10/22.0/2020,2000,g 10.5,4.0
# From MPC100285
335P/Gibbs,e,7.2923,330.8444,162.2379,3.578773,0.1455804,0.54539761,264.0195,10/22.0/2020,2000,g 17.0,4.0
# From MPC105244
336P/McNaught,e,17.8340,298.2266,308.7394,5.030892,0.0873447,0.44548283,118.5275,10/22.0/2020,2000,g 13.5,4.0
# From MPC115888
337P/WISE,e,15.3734,106.0716,160.9855,3.287627,0.1653409,0.49687764,257.9859,10/22.0/2020,2000,g 17.0,4.0
# From MPC104796
338P/McNaught,e,25.3728,9.7870,4.3968,3.898037,0.1280664,0.41113126,183.0794,10/22.0/2020,2000,g 12.0,4.0
# From MPC101101
339P/Gibbs,e,5.7350,172.7431,27.5237,3.695841,0.1387184,0.63578352,215.3096,10/22.0/2020,2000,g 17.0,4.0
# From MPC102957
340P/Boattini,e,2.0796,291.7270,35.8035,4.251553,0.1124301,0.28064362,161.0112,10/22.0/2020,2000,g 13.0,4.0
# From MPEC 2020-U96
341P/Gibbs,e,3.7948,29.9925,312.1196,4.294303,0.1107554,0.41520803,178.0500,10/22.0/2020,2000,g 12.5,4.0
# From MPC101101
342P/SOHO,e,11.7068,28.9591,72.0973,3.043958,0.1855864,0.98302156,0.0000,10/19.1696/2021,2000,g  9.0,4.0
# From MPC109148
343P/NEAT-LONEOS,e,5.5834,257.2284,137.3725,5.461672,0.0772175,0.58386350,105.2537,10/22.0/2020,2000,g 14.0,4.0
# From MPC109148
344P/Read,e,3.4904,273.1862,140.4006,4.867202,0.0917878,0.42158143,133.2290,10/22.0/2020,2000,g 13.0,4.0
# From MPC109148
345P/LINEAR,e,2.7267,154.5002,196.3583,4.039939,0.1213785,0.22070470,189.1306,10/22.0/2020,2000,g 12.0,4.0
# From MPC110086
346P/Catalina,e,22.1857,102.4681,336.0073,4.476417,0.1040659,0.50230142,140.0923,10/22.0/2020,2000,g 14.0,4.0
# From MPC108599
347P/PANSTARRS,e,11.7482,261.0405,98.3038,3.606943,0.1438782,0.38547074,215.9338,10/22.0/2020,2000,g 15.0,4.0
# From MPEC 2020-SI8
348P/PANSTARRS,e,17.7397,312.9409,135.4759,3.152955,0.1760465,0.30662800,275.8339,10/22.0/2020,2000,g 14.0,4.0
# From MPC112394
349P/Lemmon,e,5.4910,331.7474,256.0519,3.572307,0.1459758,0.29930868,168.3118,10/22.0/2020,2000,g 14.0,4.0
# From MPC111775
350P/McNaught,e,7.3563,65.3746,140.6809,4.095400,0.1189213,0.09094517,123.5472,10/22.0/2020,2000,g 14.0,4.0
# From MPC105244
351P/Wiegert-PANSTARRS,e,12.7900,283.4494,352.6364,4.437098,0.1054522,0.29606145,189.7246,10/22.0/2020,2000,g 12.5,4.0
# From MPC110086
352P/Skiff,e,21.0089,28.0918,309.1446,6.635595,0.0576613,0.61814913,70.2163,10/22.0/2020,2000,g 11.5,4.0
# From MPEC 2020-AA5
353P/McNaught,e,28.4251,121.5628,230.3744,4.171482,0.1156827,0.46992479,119.7928,10/22.0/2020,2000,g 14.5,4.0
# From MPC105545
354P/LINEAR,e,5.2555,320.1290,133.0376,2.289971,0.2844193,0.12566878,50.5042,10/22.0/2020,2000,g 15.5,4.0
# From MPEC 2020-AA5
355P/LINEAR-NEAT,e,11.0365,51.4388,336.2495,3.472506,0.1523139,0.50688331,168.3379,10/22.0/2020,2000,g 15.5,2.0
# From MPC109148
356P/WISE,e,9.6355,160.7903,226.0207,4.160682,0.1161335,0.35468422,120.7739,10/22.0/2020,2000,g 14.0,4.0
# From MPC114609
357P/Hill,e,6.3100,44.5799,1.4185,4.461792,0.1045780,0.43451817,91.7353,10/22.0/2020,2000,g 15.5,4.0
# From MPEC 2020-HN5
358P/PANSTARRS,e,11.0572,85.7134,299.7333,3.148375,0.1764308,0.23815452,163.1180,10/22.0/2020,2000,g 18.0,4.0
# From MPC110086
359P/LONEOS,e,10.2656,149.7575,200.1334,4.639569,0.0986251,0.32392703,114.1959,10/22.0/2020,2000,g 13.5,4.0
# From MPC108599
